start=new Date('2022-01-20T00:00:00.000Z').valueOf();
sats=[{"MEAN_MOTION_DOT":"-0.00824169","OBJECT_ID":"2022-001AF","REV_AT_EPOCH":"333","LAUNCH_DATE":"2022-01-06","CLASSIFICATION_TYPE":"U","MEAN_ELEMENT_THEORY":"SGP4","MEAN_MOTION_DDOT":"0.0000000000000","CENTER_NAME":"EARTH","PERIOD":"91.106","APOAPSIS":"329.584","TLE_LINE1":"1 50832U 22001AF  22019.91667824 -.00824169  00000-0 -46492-2 0  9999","MEAN_ANOMALY":"114.0659","OBJECT_NAME":"STARLINK-3328","NORAD_CAT_ID":"50832","MEAN_MOTION":"15.80581343","DECAY_DATE":null,"GP_ID":"194200321","RA_OF_ASC_NODE":"134.7081","SEMIMAJOR_AXIS":"6706.933","BSTAR":"-0.00464920000000","EPHEMERIS_TYPE":"0","ECCENTRICITY":"0.00011720","COUNTRY_CODE":"US","INCLINATION":"53.2172","TLE_LINE2":"2 50832  53.2172 134.7081 0001172  70.9940 114.0659 15.80581343  3337","PERIAPSIS":"328.012","SITE":"AFETR","ARG_OF_PERICENTER":"70.9940","TIME_SYSTEM":"UTC","FILE":"3277849","OBJECT_TYPE":"PAYLOAD","EPOCH":"2022-01-19T22:00:00.999936","RCS_SIZE":"LARGE","REF_FRAME":"TEME","ELEMENT_SET_NO":"999"},{"DECAY_DATE":null,"MEAN_MOTION":"15.80531251","NORAD_CAT_ID":"50833","OBJECT_NAME":"STARLINK-3316","TLE_LINE1":"1 50833U 22001AG  22019.91667824 -.00830573  00000-0 -46986-2 0  9994","MEAN_ANOMALY":"290.9137","APOAPSIS":"330.124","CENTER_NAME":"EARTH","PERIOD":"91.109","MEAN_MOTION_DDOT":"0.0000000000000","MEAN_ELEMENT_THEORY":"SGP4","CLASSIFICATION_TYPE":"U","LAUNCH_DATE":"2022-01-06","REV_AT_EPOCH":"335","OBJECT_ID":"2022-001AG","MEAN_MOTION_DOT":"-0.00830573","ELEMENT_SET_NO":"999","REF_FRAME":"TEME","RCS_SIZE":"LARGE","EPOCH":"2022-01-19T22:00:00.999936","OBJECT_TYPE":"PAYLOAD","FILE":"3277850","TIME_SYSTEM":"UTC","ARG_OF_PERICENTER":"251.7563","SITE":"AFETR","TLE_LINE2":"2 50833  53.2172 134.7131 0001766 251.7563 290.9137 15.80531251  3353","PERIAPSIS":"327.755","INCLINATION":"53.2172","COUNTRY_CODE":"US","ECCENTRICITY":"0.00017660","EPHEMERIS_TYPE":"0","BSTAR":"-0.00469860000000","SEMIMAJOR_AXIS":"6707.074","GP_ID":"194200334","RA_OF_ASC_NODE":"134.7131"},{"BSTAR":"-0.00464180000000","SEMIMAJOR_AXIS":"6706.840","GP_ID":"194200344","RA_OF_ASC_NODE":"134.7051","EPHEMERIS_TYPE":"0","ECCENTRICITY":"0.00011870","INCLINATION":"53.2172","COUNTRY_CODE":"US","ARG_OF_PERICENTER":"67.1220","TLE_LINE2":"2 50834  53.2172 134.7051 0001187  67.1220 119.3588 15.80613964  3368","SITE":"AFETR","PERIAPSIS":"327.909","FILE":"3277851","TIME_SYSTEM":"UTC","RCS_SIZE":"LARGE","EPOCH":"2022-01-19T22:00:00.999936","OBJECT_TYPE":"PAYLOAD","ELEMENT_SET_NO":"999","REF_FRAME":"TEME","REV_AT_EPOCH":"336","OBJECT_ID":"2022-001AH","MEAN_MOTION_DOT":"-0.00824113","MEAN_ELEMENT_THEORY":"SGP4","CLASSIFICATION_TYPE":"U","LAUNCH_DATE":"2022-01-06","CENTER_NAME":"EARTH","PERIOD":"91.104","MEAN_MOTION_DDOT":"0.0000000000000","TLE_LINE1":"1 50834U 22001AH  22019.91667824 -.00824113  00000-0 -46418-2 0  9998","MEAN_ANOMALY":"119.3588","OBJECT_NAME":"STARLINK-3331","APOAPSIS":"329.501","DECAY_DATE":null,"MEAN_MOTION":"15.80613964","NORAD_CAT_ID":"50834"},{"MEAN_MOTION_DOT":"-0.00824140","REV_AT_EPOCH":"334","OBJECT_ID":"2022-001AJ","TLE_LINE1":"1 50835U 22001AJ  22019.91667824 -.00824140  00000-0 -46372-2 0  9998","MEAN_ANOMALY":"115.0941","OBJECT_NAME":"STARLINK-3310","APOAPSIS":"329.415","NORAD_CAT_ID":"50835","DECAY_DATE":null,"MEAN_MOTION":"15.80636414","MEAN_ELEMENT_THEORY":"SGP4","LAUNCH_DATE":"2022-01-06","CLASSIFICATION_TYPE":"U","PERIOD":"91.103","CENTER_NAME":"EARTH","MEAN_MOTION_DDOT":"0.0000000000000","ECCENTRICITY":"0.00011530","COUNTRY_CODE":"US","INCLINATION":"53.2172","GP_ID":"194200376","RA_OF_ASC_NODE":"134.7033","BSTAR":"-0.00463720000000","SEMIMAJOR_AXIS":"6706.777","EPHEMERIS_TYPE":"0","EPOCH":"2022-01-19T22:00:00.999936","OBJECT_TYPE":"PAYLOAD","RCS_SIZE":"LARGE","ELEMENT_SET_NO":"999","REF_FRAME":"TEME","ARG_OF_PERICENTER":"72.3228","TLE_LINE2":"2 50835  53.2172 134.7033 0001153  72.3228 115.0941 15.80636414  3347","SITE":"AFETR","PERIAPSIS":"327.868","TIME_SYSTEM":"UTC","FILE":"3277853"},{"OBJECT_ID":"2022-001AK","REV_AT_EPOCH":"333","MEAN_MOTION_DOT":"-0.00824246","MEAN_MOTION_DDOT":"0.0000000000000","PERIOD":"91.104","CENTER_NAME":"EARTH","CLASSIFICATION_TYPE":"U","LAUNCH_DATE":"2022-01-06","MEAN_ELEMENT_THEORY":"SGP4","MEAN_MOTION":"15.80603215","DECAY_DATE":null,"NORAD_CAT_ID":"50836","APOAPSIS":"329.508","TLE_LINE1":"1 50836U 22001AK  22019.91667824 -.00824246  00000-0 -46450-2 0  9993","MEAN_ANOMALY":"108.9637","OBJECT_NAME":"STARLINK-3330","EPHEMERIS_TYPE":"0","SEMIMAJOR_AXIS":"6706.871","BSTAR":"-0.00464500000000","RA_OF_ASC_NODE":"134.7061","GP_ID":"194200005","INCLINATION":"53.2172","COUNTRY_CODE":"US","ECCENTRICITY":"0.00011520","FILE":"3277853","TIME_SYSTEM":"UTC","TLE_LINE2":"2 50836  53.2172 134.7061 0001152  77.0429 108.9637 15.80603215  3338","PERIAPSIS":"327.963","SITE":"AFETR","ARG_OF_PERICENTER":"77.0429","REF_FRAME":"TEME","ELEMENT_SET_NO":"999","RCS_SIZE":"MEDIUM","OBJECT_TYPE":"PAYLOAD","EPOCH":"2022-01-19T22:00:00.999936"},{"REV_AT_EPOCH":"328","OBJECT_ID":"2022-001AL","MEAN_MOTION_DOT":"-0.00824391","MEAN_ANOMALY":"84.7475","TLE_LINE1":"1 50837U 22001AL  22019.91667824 -.00824391  00000-0 -46646-2 0  9992","OBJECT_NAME":"STARLINK-3318","APOAPSIS":"329.734","DECAY_DATE":null,"MEAN_MOTION":"15.80516823","NORAD_CAT_ID":"50837","MEAN_ELEMENT_THEORY":"SGP4","LAUNCH_DATE":"2022-01-06","CLASSIFICATION_TYPE":"U","PERIOD":"91.109","CENTER_NAME":"EARTH","MEAN_MOTION_DDOT":"0.0000000000000","ECCENTRICITY":"0.00011240","INCLINATION":"53.2172","COUNTRY_CODE":"US","BSTAR":"-0.00466460000000","SEMIMAJOR_AXIS":"6707.115","GP_ID":"194200014","RA_OF_ASC_NODE":"134.7140","EPHEMERIS_TYPE":"0","RCS_SIZE":"LARGE","EPOCH":"2022-01-19T22:00:00.999936","OBJECT_TYPE":"PAYLOAD","ELEMENT_SET_NO":"999","REF_FRAME":"TEME","ARG_OF_PERICENTER":"97.4528","SITE":"AFETR","TLE_LINE2":"2 50837  53.2172 134.7140 0001124  97.4528  84.7475 15.80516823  3285","PERIAPSIS":"328.226","FILE":"3277863","TIME_SYSTEM":"UTC"},{"ECCENTRICITY":"0.00011070","INCLINATION":"53.2172","COUNTRY_CODE":"US","SEMIMAJOR_AXIS":"6706.594","BSTAR":"-0.00462590000000","GP_ID":"194200016","RA_OF_ASC_NODE":"134.6973","EPHEMERIS_TYPE":"0","RCS_SIZE":"LARGE","OBJECT_TYPE":"PAYLOAD","EPOCH":"2022-01-19T22:00:00.999936","REF_FRAME":"TEME","ELEMENT_SET_NO":"999","SITE":"AFETR","TLE_LINE2":"2 50838  53.2172 134.6973 0001107  91.4661  98.7986 15.80701005  3282","PERIAPSIS":"327.717","ARG_OF_PERICENTER":"91.4661","FILE":"3277863","TIME_SYSTEM":"UTC","OBJECT_ID":"2022-001AM","REV_AT_EPOCH":"328","MEAN_MOTION_DOT":"-0.00824546","APOAPSIS":"329.202","TLE_LINE1":"1 50838U 22001AM  22019.91667824 -.00824546  00000-0 -46259-2 0  9995","MEAN_ANOMALY":"98.7986","OBJECT_NAME":"STARLINK-3322","MEAN_MOTION":"15.80701005","DECAY_DATE":null,"NORAD_CAT_ID":"50838","LAUNCH_DATE":"2022-01-06","CLASSIFICATION_TYPE":"U","MEAN_ELEMENT_THEORY":"SGP4","MEAN_MOTION_DDOT":"0.0000000000000","PERIOD":"91.099","CENTER_NAME":"EARTH"},{"OBJECT_NAME":"STARLINK-3320","TLE_LINE1":"1 50839U 22001AN  22019.91667824 -.00824292  00000-0 -46312-2 0  9994","MEAN_ANOMALY":"118.8135","APOAPSIS":"329.347","DECAY_DATE":null,"MEAN_MOTION":"15.80668362","NORAD_CAT_ID":"50839","MEAN_ELEMENT_THEORY":"SGP4","CLASSIFICATION_TYPE":"U","LAUNCH_DATE":"2022-01-06","PERIOD":"91.101","CENTER_NAME":"EARTH","MEAN_MOTION_DDOT":"0.0000000000000","REV_AT_EPOCH":"335","OBJECT_ID":"2022-001AN","MEAN_MOTION_DOT":"-0.00824292","RCS_SIZE":"LARGE","EPOCH":"2022-01-19T22:00:00.999936","OBJECT_TYPE":"PAYLOAD","ELEMENT_SET_NO":"999","REF_FRAME":"TEME","ARG_OF_PERICENTER":"70.0336","TLE_LINE2":"2 50839  53.2172 134.7003 0001186  70.0336 118.8135 15.80668362  3353","PERIAPSIS":"327.756","SITE":"AFETR","FILE":"3277863","TIME_SYSTEM":"UTC","ECCENTRICITY":"0.00011860","INCLINATION":"53.2172","COUNTRY_CODE":"US","BSTAR":"-0.00463120000000","SEMIMAJOR_AXIS":"6706.686","GP_ID":"194200387","RA_OF_ASC_NODE":"134.7003","EPHEMERIS_TYPE":"0"},{"ELEMENT_SET_NO":"999","REF_FRAME":"TEME","RCS_SIZE":"LARGE","EPOCH":"2022-01-19T22:00:00.999936","OBJECT_TYPE":"PAYLOAD","FILE":"3277854","TIME_SYSTEM":"UTC","ARG_OF_PERICENTER":"88.1187","TLE_LINE2":"2 50840  53.2171 134.6993 0001121  88.1187 101.2034 15.80679190  3360","SITE":"AFETR","PERIAPSIS":"327.769","INCLINATION":"53.2171","COUNTRY_CODE":"US","ECCENTRICITY":"0.00011210","EPHEMERIS_TYPE":"0","BSTAR":"-0.00463040000000","SEMIMAJOR_AXIS":"6706.656","RA_OF_ASC_NODE":"134.6993","GP_ID":"194200392","DECAY_DATE":null,"MEAN_MOTION":"15.80679190","NORAD_CAT_ID":"50840","TLE_LINE1":"1 50840U 22001AP  22019.91667824 -.00824520  00000-0 -46304-2 0  9991","MEAN_ANOMALY":"101.2034","OBJECT_NAME":"STARLINK-3295","APOAPSIS":"329.273","PERIOD":"91.100","CENTER_NAME":"EARTH","MEAN_MOTION_DDOT":"0.0000000000000","MEAN_ELEMENT_THEORY":"SGP4","LAUNCH_DATE":"2022-01-06","CLASSIFICATION_TYPE":"U","REV_AT_EPOCH":"336","OBJECT_ID":"2022-001AP","MEAN_MOTION_DOT":"-0.00824520"},{"NORAD_CAT_ID":"50841","DECAY_DATE":null,"MEAN_MOTION":"15.80647335","MEAN_ANOMALY":"107.4219","TLE_LINE1":"1 50841U 22001AQ  22019.91667824 -.00824341  00000-0 -46361-2 0  9996","OBJECT_NAME":"STARLINK-3300","APOAPSIS":"329.379","PERIOD":"91.102","CENTER_NAME":"EARTH","MEAN_MOTION_DDOT":"0.0000000000000","MEAN_ELEMENT_THEORY":"SGP4","LAUNCH_DATE":"2022-01-06","CLASSIFICATION_TYPE":"U","MEAN_MOTION_DOT":"-0.00824341","REV_AT_EPOCH":"335","OBJECT_ID":"2022-001AQ","ELEMENT_SET_NO":"999","REF_FRAME":"TEME","EPOCH":"2022-01-19T22:00:00.999936","OBJECT_TYPE":"PAYLOAD","RCS_SIZE":"LARGE","TIME_SYSTEM":"UTC","FILE":"3277854","ARG_OF_PERICENTER":"80.4694","TLE_LINE2":"2 50841  53.2172 134.7023 0001146  80.4694 107.4219 15.80647335  3350","PERIAPSIS":"327.842","SITE":"AFETR","COUNTRY_CODE":"US","INCLINATION":"53.2172","ECCENTRICITY":"0.00011460","EPHEMERIS_TYPE":"0","RA_OF_ASC_NODE":"134.7023","GP_ID":"194200401","BSTAR":"-0.00463610000000","SEMIMAJOR_AXIS":"6706.746"}];
